{
  "norad_id": 62769,
  "name": "STARLINK-33569",
  "history": [
    {
      "epoch": "2026-03-28T16:33:03.823776Z",
      "apogee_km": 475.97547414910787,
      "perigee_km": 474.38961600637685,
      "latitude_deg": -1.2499824580384152e-05,
      "longitude_deg": 159.58039447226295,
      "height_km": 476.04774953630573,
      "semi_major_axis_km": 6853.319545077742,
      "eccentricity": 0.0001157,
      "inclination_deg": 53.1577,
      "raan_deg": 233.9528,
      "arg_perigee_deg": 87.6303,
      "mean_anomaly_deg": 272.483,
      "mean_motion_rev_day": 15.30210893
    },
    {
      "epoch": "2026-03-29T20:46:01.218432Z",
      "apogee_km": 475.91428214453117,
      "perigee_km": 474.4750824912444,
      "latitude_deg": 1.4514355221736754e-05,
      "longitude_deg": 89.72168291775145,
      "height_km": 475.9571476748414,
      "semi_major_axis_km": 6853.3316823178875,
      "eccentricity": 0.000105,
      "inclination_deg": 53.1576,
      "raan_deg": 228.492,
      "arg_perigee_deg": 79.132,
      "mean_anomaly_deg": 280.9799,
      "mean_motion_rev_day": 15.30206828
    }
  ]
}